YAOGAN-35 03B           
1 53318U 22088C   26068.54399603  .00010651  00000+0  44045-3 0  9993
2 53318  34.9880 116.4068 0013847 202.6301 157.3803 15.23107662201134
STARLINK-30287          
1 57709U 23129M   26068.15419765  .00000451  00000+0  26509-4 0  9990
2 57709  43.0029 120.6792 0001809 270.9354  89.1290 15.26742719140607
